$$SOE
2459580.500000000, A.D. 2022-Jan-01 00:00:00.0000, 5.593639008719967E+07, -4.408956107991282E+08, -1.184483160659838E+07,
2459587.500000000, A.D. 2022-Jan-08 00:00:00.0000, 6.597164140542149E+07, -4.388312631326489E+08, -1.176830526524863E+07,
2459594.500000000, A.D. 2022-Jan-15 00:00:00.0000, 7.597031287710355E+07, -4.365233719222651E+08, -1.168524780375394E+07,
2459601.500000000, A.D. 2022-Jan-22 00:00:00.0000, 8.592666741918108E+07, -4.339721019643542E+08, -1.159567586327597E+07,
2459608.500000000, A.D. 2022-Jan-29 00:00:00.0000, 9.583493645665205E+07, -4.311777399930645E+08, -1.149960942209864E+07,
2459615.500000000, A.D. 2022-Feb-05 00:00:00.0000, 1.056893197107201E+08, -4.281406977074773E+08, -1.139707170759642E+07,
2459622.500000000, A.D. 2022-Feb-12 00:00:00.0000, 1.154839872763388E+08, -4.248615158829817E+08, -1.128808939356461E+07,
2459629.500000000, A.D. 2022-Feb-19 00:00:00.0000, 1.252130826693297E+08, -4.213408671948026E+08, -1.117269276780650E+07,
2459636.500000000, A.D. 2022-Feb-26 00:00:00.0000, 1.348707255360787E+08, -4.175795584729394E+08, -1.105091580879155E+07,
2459643.500000000, A.D. 2022-Mar-05 00:00:00.0000, 1.444510141893124E+08, -4.135785330008256E+08, -1.092279623648629E+07,
2459650.500000000, A.D. 2022-Mar-12 00:00:00.0000, 1.539480281959007E+08, -4.093388729183196E+08, -1.078837556318980E+07,
2459657.500000000, A.D. 2022-Mar-19 00:00:00.0000, 1.633558310916772E+08, -4.048618016952262E+08, -1.064769914874509E+07,
2459664.500000000, A.D. 2022-Mar-26 00:00:00.0000, 1.726684732496413E+08, -4.001486866747127E+08, -1.050081626283804E+07,
2459671.500000000, A.D. 2022-Apr-02 00:00:00.0000, 1.818799949738133E+08, -3.952010417354989E+08, -1.034778016533598E+07,
2459678.500000000, A.D. 2022-Apr-09 00:00:00.0000, 1.909844300957212E+08, -3.900205300616022E+08, -1.018864822929412E+07,
2459685.500000000, A.D. 2022-Apr-16 00:00:00.0000, 1.999758104351739E+08, -3.846089663600938E+08, -1.002348208584782E+07,
2459692.500000000, A.D. 2022-Apr-23 00:00:00.0000, 2.088481698595316E+08, -3.789683174370437E+08, -9.852347585791111E+06,
2459699.500000000, A.D. 2022-Apr-30 00:00:00.0000, 2.175955460726727E+08, -3.731007033692498E+08, -9.675314589573801E+06,
2459706.500000000, A.D. 2022-May-07 00:00:00.0000, 2.262119831973534E+08, -3.670084012352178E+08, -9.492457027763352E+06,
2459713.500000000, A.D. 2022-May-14 00:00:00.0000, 2.346915365418988E+08, -3.606938483568076E+08, -9.303853110918567E+06,
2459720.500000000, A.D. 2022-May-21 00:00:00.0000, 2.430282775217749E+08, -3.541596442820508E+08, -9.109585440324590E+06,
2459727.500000000, A.D. 2022-May-28 00:00:00.0000, 2.512162982595660E+08, -3.474085524563069E+08, -8.909741053848505E+06,
2459734.500000000, A.D. 2022-Jun-04 00:00:00.0000, 2.592497161439807E+08, -3.404435018836972E+08, -8.704411457753062E+06,
2459741.500000000, A.D. 2022-Jun-11 00:00:00.0000, 2.671226784961067E+08, -3.332675887674583E+08, -8.493692657329962E+06,
2459748.500000000, A.D. 2022-Jun-18 00:00:00.0000, 2.748293673835422E+08, -3.258840781076469E+08, -8.277685188463464E+06,
2459755.500000000, A.D. 2022-Jun-25 00:00:00.0000, 2.823640046115510E+08, -3.182964052801616E+08, -8.056494155132338E+06,
2459762.500000000, A.D. 2022-Jul-02 00:00:00.0000, 2.897208570237792E+08, -3.105081776516362E+08, -7.830229290116698E+06,
2459769.500000000, A.D. 2022-Jul-09 00:00:00.0000, 2.968942425016508E+08, -3.025231760410738E+08, -7.599005059781551E+06,
2459776.500000000, A.D. 2022-Jul-16 00:00:00.0000, 3.038785366063992E+08, -2.943453549342781E+08, -7.362940718773887E+06,
2459783.500000000, A.D. 2022-Jul-23 00:00:00.0000, 3.106681776626585E+08, -2.859788413629481E+08, -7.122160105997697E+06,
2459790.500000000, A.D. 2022-Jul-30 00:00:00.0000, 3.172576703621650E+08, -2.774279357898508E+08, -6.876791463175923E+06,
2459797.500000000, A.D. 2022-Aug-06 00:00:00.0000, 3.236415914803581E+08, -2.686971143373523E+08, -6.626967552681208E+06,
2459804.500000000, A.D. 2022-Aug-13 00:00:00.0000, 3.298145968774713E+08, -2.597910295911127E+08, -6.372825773419499E+06,
2459811.500000000, A.D. 2022-Aug-20 00:00:00.0000, 3.357714282086595E+08, -2.507145104691917E+08, -6.114508171279058E+06,
2459818.500000000, A.D. 2022-Aug-27 00:00:00.0000, 3.415069194040530E+08, -2.414725618694215E+08, -5.852161409138858E+06,
2459825.500000000, A.D. 2022-Sep-03 00:00:00.0000, 3.470160031589825E+08, -2.320703641915772E+08, -5.585936727663517E+06,
2459832.500000000, A.D. 2022-Sep-10 00:00:00.0000, 3.522937175165709E+08, -2.225132726968229E+08, -5.315989902730688E+06,
2459839.500000000, A.D. 2022-Sep-17 00:00:00.0000, 3.573352125635661E+08, -2.128068166934940E+08, -5.042481201986372E+06,
2459846.500000000, A.D. 2022-Sep-24 00:00:00.0000, 3.621357572897073E+08, -2.029566985882103E+08, -4.765575350035474E+06,
2459853.500000000, A.D. 2022-Oct-01 00:00:00.0000, 3.666907468384340E+08, -1.929687928124901E+08, -4.485441526076078E+06,
2459860.500000000, A.D. 2022-Oct-08 00:00:00.0000, 3.709957105436422E+08, -1.828491440901251E+08, -4.202253388611116E+06,
2459867.500000000, A.D. 2022-Oct-15 00:00:00.0000, 3.750463198091552E+08, -1.726039638352862E+08, -3.916188943502888E+06,
2459874.500000000, A.D. 2022-Oct-22 00:00:00.0000, 3.788383936357464E+08, -1.622396263570939E+08, -3.627430192701586E+06,
2459881.500000000, A.D. 2022-Oct-29 00:00:00.0000, 3.823679042751268E+08, -1.517626674546928E+08, -3.336163004876241E+06,
2459888.500000000, A.D. 2022-Nov-05 00:00:00.0000, 3.856309850909865E+08, -1.411797826504451E+08, -3.042577176660292E+06,
2459895.500000000, A.D. 2022-Nov-12 00:00:00.0000, 3.886239386443067E+08, -1.304978237842391E+08, -2.746866400687255E+06,
2459902.500000000, A.D. 2022-Nov-19 00:00:00.0000, 3.913432442648758E+08, -1.197237949150503E+08, -2.449228152335927E+06,
2459909.500000000, A.D. 2022-Nov-26 00:00:00.0000, 3.937855653511690E+08, -1.088648479200399E+08, -2.149863551655695E+06,
2459916.500000000, A.D. 2022-Dec-03 00:00:00.0000, 3.959477565435733E+08, -9.792827779657747E+07, -1.848977216578089E+06,
2459923.500000000, A.D. 2022-Dec-10 00:00:00.0000, 3.978268707948015E+08, -8.692151764347818E+07, -1.546777109967999E+06,
2459930.500000000, A.D. 2022-Dec-17 00:00:00.0000, 3.994201663400396E+08, -7.585213334291822E+07, -1.243474384711094E+06,
2459937.500000000, A.D. 2022-Dec-24 00:00:00.0000, 4.007251136530984E+08, -6.472781800720288E+07, -9.392832421974540E+05,
2459944.500000000, A.D. 2022-Dec-31 00:00:00.0000, 4.017394027210688E+08, -5.355638608259238E+07, -6.344208283066265E+05,
2459951.500000000, A.D. 2023-Jan-07 00:00:00.0000, 4.024609507343005E+08, -4.234576614741572E+07, -3.291070995014515E+05,
2459958.500000000, A.D. 2023-Jan-14 00:00:00.0000, 4.028879082022136E+08, -3.110399190941727E+07, -2.356443764061667E+04,
2459965.500000000, A.D. 2023-Jan-21 00:00:00.0000, 4.030186628272646E+08, -1.983919458265104E+07, 2.819827864183113E+05,
2459972.500000000, A.D. 2023-Jan-28 00:00:00.0000, 4.028518447749071E+08, -8.559596848464925E+06, 5.873083473955863E+05,
2459979.500000000, A.D. 2023-Feb-04 00:00:00.0000, 4.023863330990029E+08, 2.726494620435916E+06, 8.921842642881536E+05,
2459986.500000000, A.D. 2023-Feb-11 00:00:00.0000, 4.016212614987938E+08, 1.401069787264457E+07, 1.196381011642320E+06,
2459993.500000000, A.D. 2023-Feb-18 00:00:00.0000, 4.005560233191087E+08, 2.528456479609688E+07, 1.499667781693924E+06,
2460000.500000000, A.D. 2023-Feb-25 00:00:00.0000, 3.991902760346563E+08, 3.653959046858776E+07, 1.801812759978881E+06,
2460007.500000000, A.D. 2023-Mar-04 00:00:00.0000, 3.975239453001731E+08, 4.776722274451043E+07, 2.102583406533893E+06,
2460014.500000000, A.D. 2023-Mar-11 00:00:00.0000, 3.955572285744011E+08, 5.895887205987204E+07, 2.401746739939913E+06,
2460021.500000000, A.D. 2023-Mar-18 00:00:00.0000, 3.932905983438014E+08, 7.010592138540316E+07, 2.699069615503427E+06,
2460028.500000000, A.D. 2023-Mar-25 00:00:00.0000, 3.907248051282130E+08, 8.119973625785366E+07, 2.994318974513810E+06,
2460035.500000000, A.D. 2023-Apr-01 00:00:00.0000, 3.878608806710092E+08, 9.223167525789759E+07, 3.287262056920782E+06,
2460042.500000000, A.D. 2023-Apr-08 00:00:00.0000, 3.847001406753265E+08, 1.031931021349498E+08, 3.577666733150676E+06,
2460049.500000000, A.D. 2023-Apr-15 00:00:00.0000, 3.812441847325794E+08, 1.140753984494733E+08, 3.865302078757472E+06,
2460056.500000000, A.D. 2023-Apr-22 00:00:00.0000, 3.774948952416427E+08, 1.248699736523210E+08, 4.149938775915779E+06,
2460063.500000000, A.D. 2023-Apr-29 00:00:00.0000, 3.734544380391098E+08, 1.355682748214698E+08, 4.431349273678072E+06,
2460070.500000000, A.D. 2023-May-06 00:00:00.0000, 3.691252629662731E+08, 1.461617978059443E+08, 4.709308012887932E+06,
2460077.500000000, A.D. 2023-May-13 00:00:00.0000, 3.645101033864570E+08, 1.566420988514805E+08, 4.983591731315441E+06,
2460084.500000000, A.D. 2023-May-20 00:00:00.0000, 3.596119748801432E+08, 1.670008061832823E+08, 5.253979786270812E+06,
2460091.500000000, A.D. 2023-May-27 00:00:00.0000, 3.544341733067657E+08, 1.772296314817236E+08, 5.520254473310962E+06,
2460098.500000000, A.D. 2023-Jun-03 00:00:00.0000, 3.489802722883388E+08, 1.873203812415602E+08, 5.782201336614043E+06,
2460105.500000000, A.D. 2023-Jun-10 00:00:00.0000, 3.432541201386899E+08, 1.972649679651383E+08, 6.039609466463938E+06,
2460112.500000000, A.D. 2023-Jun-17 00:00:00.0000, 3.372598363300864E+08, 2.070554210937880E+08, 6.292271769575372E+06,
2460119.500000000, A.D. 2023-Jun-24 00:00:00.0000, 3.310018078232621E+08, 2.166838976971599E+08, 6.539985186265990E+06,
2460126.500000000, A.D. 2023-Jul-01 00:00:00.0000, 3.244846855218472E+08, 2.261426937110339E+08, 6.782550897537693E+06,
2460133.500000000, A.D. 2023-Jul-08 00:00:00.0000, 3.177133791832621E+08, 2.354242565081759E+08, 7.019774741529569E+06,
2460140.500000000, A.D. 2023-Jul-15 00:00:00.0000, 3.106930495201263E+08, 2.445211959414104E+08, 7.251467724798992E+06,
2460147.500000000, A.D. 2023-Jul-22 00:00:00.0000, 3.034291010333154E+08, 2.534262927931911E+08, 7.477446220199928E+06,
$$EOE